[{"OBJECT_NAME":"ONEWEB-0594","OBJECT_ID":"2022-166U","EPOCH":"2026-03-22T05:29:00.121632","MEAN_MOTION":13.21825098,"ECCENTRICITY":0.0001803,"INCLINATION":87.9164,"RA_OF_ASC_NODE":261.3281,"ARG_OF_PERICENTER":94.5148,"MEAN_ANOMALY":265.6192,"EPHEMERIS_TYPE":0,"CLASSIFICATION_TYPE":"U","NORAD_CAT_ID":54660,"ELEMENT_SET_NO":999,"REV_AT_EPOCH":16007,"BSTAR":0.0002079402,"MEAN_MOTION_DOT":9.9e-7,"MEAN_MOTION_DDOT":0},{"OBJECT_NAME":"ONEWEB-0595","OBJECT_ID":"2022-166V","EPOCH":"2026-03-22T01:17:49.636608","MEAN_MOTION":13.21825162,"ECCENTRICITY":0.00018149,"INCLINATION":87.9172,"RA_OF_ASC_NODE":261.3364,"ARG_OF_PERICENTER":89.5456,"MEAN_ANOMALY":270.5886,"EPHEMERIS_TYPE":0,"CLASSIFICATION_TYPE":"U","NORAD_CAT_ID":54661,"ELEMENT_SET_NO":999,"REV_AT_EPOCH":16002,"BSTAR":0.00023319988,"MEAN_MOTION_DOT":1.09e-6,"MEAN_MOTION_DDOT":0},{"OBJECT_NAME":"ONEWEB-0596","OBJECT_ID":"2022-166W","EPOCH":"2026-03-22T06:06:55.308384","MEAN_MOTION":13.2182546,"ECCENTRICITY":0.00017074,"INCLINATION":87.9163,"RA_OF_ASC_NODE":261.313,"ARG_OF_PERICENTER":91.1441,"MEAN_ANOMALY":268.9888,"EPHEMERIS_TYPE":0,"CLASSIFICATION_TYPE":"U","NORAD_CAT_ID":54662,"ELEMENT_SET_NO":999,"REV_AT_EPOCH":16005,"BSTAR":-0.00011540295,"MEAN_MOTION_DOT":-3.5e-7,"MEAN_MOTION_DDOT":0},{"OBJECT_NAME":"ONEWEB-0597","OBJECT_ID":"2022-166X","EPOCH":"2026-03-22T05:40:50.181024","MEAN_MOTION":13.21827586,"ECCENTRICITY":0.00015662,"INCLINATION":87.9164,"RA_OF_ASC_NODE":261.3215,"ARG_OF_PERICENTER":96.0982,"MEAN_ANOMALY":264.0331,"EPHEMERIS_TYPE":0,"CLASSIFICATION_TYPE":"U","NORAD_CAT_ID":54663,"ELEMENT_SET_NO":999,"REV_AT_EPOCH":16005,"BSTAR":5.9275092e-5,"MEAN_MOTION_DOT":3.8e-7,"MEAN_MOTION_DDOT":0},{"OBJECT_NAME":"ONEWEB-0600","OBJECT_ID":"2022-166Y","EPOCH":"2026-03-22T05:14:47.693184","MEAN_MOTION":13.21824824,"ECCENTRICITY":0.00017566,"INCLINATION":87.9165,"RA_OF_ASC_NODE":261.3162,"ARG_OF_PERICENTER":102.4261,"MEAN_ANOMALY":257.707,"EPHEMERIS_TYPE":0,"CLASSIFICATION_TYPE":"U","NORAD_CAT_ID":54664,"ELEMENT_SET_NO":999,"REV_AT_EPOCH":16002,"BSTAR":5.9748804e-5,"MEAN_MOTION_DOT":3.8e-7,"MEAN_MOTION_DDOT":0},{"OBJECT_NAME":"ONEWEB-0601","OBJECT_ID":"2022-166Z","EPOCH":"2026-03-22T01:24:55.398528","MEAN_MOTION":13.21827663,"ECCENTRICITY":0.000143,"INCLINATION":87.9164,"RA_OF_ASC_NODE":261.3651,"ARG_OF_PERICENTER":99.0171,"MEAN_ANOMALY":261.1125,"EPHEMERIS_TYPE":0,"CLASSIFICATION_TYPE":"U","NORAD_CAT_ID":54665,"ELEMENT_SET_NO":999,"REV_AT_EPOCH":16019,"BSTAR":-4.751023e-5,"MEAN_MOTION_DOT":-7.0e-8,"MEAN_MOTION_DDOT":0},{"OBJECT_NAME":"ONEWEB-0602","OBJECT_ID":"2022-166AA","EPOCH":"2026-03-22T06:01:00.247584","MEAN_MOTION":13.21825814,"ECCENTRICITY":0.00017854,"INCLINATION":87.9165,"RA_OF_ASC_NODE":261.3326,"ARG_OF_PERICENTER":104.2924,"MEAN_ANOMALY":255.8409,"EPHEMERIS_TYPE":0,"CLASSIFICATION_TYPE":"U","NORAD_CAT_ID":54666,"ELEMENT_SET_NO":999,"REV_AT_EPOCH":16006,"BSTAR":-0.00012497987,"MEAN_MOTION_DOT":-3.9e-7,"MEAN_MOTION_DDOT":0},{"OBJECT_NAME":"ONEWEB-0603","OBJECT_ID":"2022-166AB","EPOCH":"2026-03-22T06:09:17.612640","MEAN_MOTION":13.21824996,"ECCENTRICITY":0.00015598,"INCLINATION":87.9174,"RA_OF_ASC_NODE":261.2789,"ARG_OF_PERICENTER":97.6589,"MEAN_ANOMALY":262.4722,"EPHEMERIS_TYPE":0,"CLASSIFICATION_TYPE":"U","NORAD_CAT_ID":54667,"ELEMENT_SET_NO":999,"REV_AT_EPOCH":15999,"BSTAR":-0.00013997794,"MEAN_MOTION_DOT":-4.5e-7,"MEAN_MOTION_DDOT":0},{"OBJECT_NAME":"ONEWEB-0604","OBJECT_ID":"2022-166AC","EPOCH":"2026-03-22T05:52:42.392640","MEAN_MOTION":13.21825621,"ECCENTRICITY":0.00017795,"INCLINATION":87.9175,"RA_OF_ASC_NODE":261.2957,"ARG_OF_PERICENTER":94.389,"MEAN_ANOMALY":265.7447,"EPHEMERIS_TYPE":0,"CLASSIFICATION_TYPE":"U","NORAD_CAT_ID":54668,"ELEMENT_SET_NO":999,"REV_AT_EPOCH":15995,"BSTAR":-9.861459e-6,"MEAN_MOTION_DOT":9.0e-8,"MEAN_MOTION_DDOT":0},{"OBJECT_NAME":"ONEWEB-0605","OBJECT_ID":"2022-166AD","EPOCH":"2026-03-22T05:43:13.465056","MEAN_MOTION":13.21825612,"ECCENTRICITY":0.00011184,"INCLINATION":87.9165,"RA_OF_ASC_NODE":261.3193,"ARG_OF_PERICENTER":88.9317,"MEAN_ANOMALY":271.1945,"EPHEMERIS_TYPE":0,"CLASSIFICATION_TYPE":"U","NORAD_CAT_ID":54669,"ELEMENT_SET_NO":999,"REV_AT_EPOCH":16002,"BSTAR":4.723607e-5,"MEAN_MOTION_DOT":3.3e-7,"MEAN_MOTION_DDOT":0},{"OBJECT_NAME":"ONEWEB-0606","OBJECT_ID":"2022-166AE","EPOCH":"2026-03-21T21:08:59.612928","MEAN_MOTION":13.21827695,"ECCENTRICITY":0.00018041,"INCLINATION":87.9162,"RA_OF_ASC_NODE":261.4037,"ARG_OF_PERICENTER":90.2932,"MEAN_ANOMALY":269.8409,"EPHEMERIS_TYPE":0,"CLASSIFICATION_TYPE":"U","NORAD_CAT_ID":54670,"ELEMENT_SET_NO":999,"REV_AT_EPOCH":16003,"BSTAR":-5.4544124e-5,"MEAN_MOTION_DOT":-1.0e-7,"MEAN_MOTION_DDOT":0},{"OBJECT_NAME":"ONEWEB-0607","OBJECT_ID":"2022-166AF","EPOCH":"2026-03-22T05:26:38.171616","MEAN_MOTION":13.2182675,"ECCENTRICITY":0.00015975,"INCLINATION":87.9171,"RA_OF_ASC_NODE":261.2997,"ARG_OF_PERICENTER":99.087,"MEAN_ANOMALY":261.0444,"EPHEMERIS_TYPE":0,"CLASSIFICATION_TYPE":"U","NORAD_CAT_ID":54671,"ELEMENT_SET_NO":999,"REV_AT_EPOCH":16005,"BSTAR":-2.010191e-6,"MEAN_MOTION_DOT":1.2e-7,"MEAN_MOTION_DDOT":0},{"OBJECT_NAME":"ONEWEB-0608","OBJECT_ID":"2022-166AG","EPOCH":"2026-03-22T05:36:06.726816","MEAN_MOTION":13.21825068,"ECCENTRICITY":0.00011645,"INCLINATION":87.9173,"RA_OF_ASC_NODE":261.2923,"ARG_OF_PERICENTER":99.8531,"MEAN_ANOMALY":260.2734,"EPHEMERIS_TYPE":0,"CLASSIFICATION_TYPE":"U","NORAD_CAT_ID":54672,"ELEMENT_SET_NO":999,"REV_AT_EPOCH":16006,"BSTAR":6.280559e-6,"MEAN_MOTION_DOT":1.6e-7,"MEAN_MOTION_DDOT":0},{"OBJECT_NAME":"ONEWEB-0610","OBJECT_ID":"2022-166AH","EPOCH":"2026-03-22T05:07:40.480608","MEAN_MOTION":13.21825148,"ECCENTRICITY":0.00011529,"INCLINATION":87.9166,"RA_OF_ASC_NODE":261.3197,"ARG_OF_PERICENTER":110.3953,"MEAN_ANOMALY":249.7305,"EPHEMERIS_TYPE":0,"CLASSIFICATION_TYPE":"U","NORAD_CAT_ID":54673,"ELEMENT_SET_NO":999,"REV_AT_EPOCH":15996,"BSTAR":0.00017993507,"MEAN_MOTION_DOT":8.7e-7,"MEAN_MOTION_DDOT":0},{"OBJECT_NAME":"ONEWEB-0611","OBJECT_ID":"2022-166AJ","EPOCH":"2026-03-22T04:58:12.513792","MEAN_MOTION":13.21825567,"ECCENTRICITY":0.00018827,"INCLINATION":87.9163,"RA_OF_ASC_NODE":261.3177,"ARG_OF_PERICENTER":94.0434,"MEAN_ANOMALY":266.0915,"EPHEMERIS_TYPE":0,"CLASSIFICATION_TYPE":"U","NORAD_CAT_ID":54674,"ELEMENT_SET_NO":999,"REV_AT_EPOCH":15995,"BSTAR":8.777852e-6,"MEAN_MOTION_DOT":1.7e-7,"MEAN_MOTION_DDOT":0},{"OBJECT_NAME":"ONEWEB-0612","OBJECT_ID":"2022-166AK","EPOCH":"2026-03-22T05:17:08.724768","MEAN_MOTION":13.2182835,"ECCENTRICITY":0.00015508,"INCLINATION":87.9175,"RA_OF_ASC_NODE":261.3003,"ARG_OF_PERICENTER":98.0399,"MEAN_ANOMALY":262.0911,"EPHEMERIS_TYPE":0,"CLASSIFICATION_TYPE":"U","NORAD_CAT_ID":54675,"ELEMENT_SET_NO":999,"REV_AT_EPOCH":15994,"BSTAR":0.00022685456,"MEAN_MOTION_DOT":1.07e-6,"MEAN_MOTION_DDOT":0}]
