ONEWEB-0594             
1 54660U 22166U   26081.22847363  .00000099  00000+0  20794-3 0  9992
2 54660  87.9164 261.3281 0001803  94.5148 265.6192 13.21825098160078
ONEWEB-0595             
1 54661U 22166V   26081.05404672  .00000109  00000+0  23320-3 0  9996
2 54661  87.9172 261.3364 0001814  89.5456 270.5886 13.21825162160020
ONEWEB-0596             
1 54662U 22166W   26081.25480681 -.00000035  00000+0 -11540-3 0  9994
2 54662  87.9163 261.3130 0001707  91.1441 268.9888 13.21825460160053
ONEWEB-0597             
1 54663U 22166X   26081.23669191  .00000038  00000+0  59275-4 0  9997
2 54663  87.9164 261.3215 0001566  96.0982 264.0331 13.21827586160057
ONEWEB-0600             
1 54664U 22166Y   26081.21860756  .00000038  00000+0  59749-4 0  9992
2 54664  87.9165 261.3162 0001756 102.4261 257.7070 13.21824824160021
ONEWEB-0601             
1 54665U 22166Z   26081.05897452 -.00000007  00000+0 -47510-4 0  9999
2 54665  87.9164 261.3651 0001430  99.0171 261.1125 13.21827663160196
ONEWEB-0602             
1 54666U 22166AA  26081.25069731 -.00000039  00000+0 -12498-3 0  9994
2 54666  87.9165 261.3326 0001785 104.2924 255.8409 13.21825814160062
ONEWEB-0603             
1 54667U 22166AB  26081.25645385 -.00000045  00000+0 -13998-3 0  9993
2 54667  87.9174 261.2789 0001559  97.6589 262.4722 13.21824996159998
ONEWEB-0604             
1 54668U 22166AC  26081.24493510  .00000009  00000+0 -98615-5 0  9994
2 54668  87.9175 261.2957 0001779  94.3890 265.7447 13.21825621159952
ONEWEB-0605             
1 54669U 22166AD  26081.23835029  .00000033  00000+0  47236-4 0  9997
2 54669  87.9165 261.3193 0001118  88.9317 271.1945 13.21825612160029
ONEWEB-0606             
1 54670U 22166AE  26080.88124552 -.00000010  00000+0 -54544-4 0  9998
2 54670  87.9162 261.4037 0001804  90.2932 269.8409 13.21827695160030
ONEWEB-0607             
1 54671U 22166AF  26081.22683069  .00000012  00000+0 -20102-5 0  9996
2 54671  87.9171 261.2997 0001597  99.0870 261.0444 13.21826750160057
ONEWEB-0608             
1 54672U 22166AG  26081.23341119  .00000016  00000+0  62806-5 0  9995
2 54672  87.9173 261.2923 0001164  99.8531 260.2734 13.21825068160066
ONEWEB-0610             
1 54673U 22166AH  26081.21366297  .00000087  00000+0  17994-3 0  9992
2 54673  87.9166 261.3197 0001152 110.3953 249.7305 13.21825148159969
ONEWEB-0611             
1 54674U 22166AJ  26081.20708928  .00000017  00000+0  87779-5 0  9996
2 54674  87.9163 261.3177 0001882  94.0434 266.0915 13.21825567159950
ONEWEB-0612             
1 54675U 22166AK  26081.22023987  .00000107  00000+0  22685-3 0  9997
2 54675  87.9175 261.3003 0001550  98.0399 262.0911 13.21828350159942
